start=new Date('2023-03-23T00:00:00.000Z').valueOf();
sats=[{"NORAD_CAT_ID":"45207","SITE":"AFETR","SEMIMAJOR_AXIS":"6925.214","EPHEMERIS_TYPE":"0","BSTAR":"0.00245300000000","COUNTRY_CODE":"US","OBJECT_TYPE":"PAYLOAD","OBJECT_NAME":"STARLINK-1210","TLE_LINE2":"2 45207  53.0532 208.6850 0001609  60.3546 299.7603 15.06444019170937","OBJECT_ID":"2020-012AF","LAUNCH_DATE":"2020-02-17","DECAY_DATE":null,"MEAN_MOTION_DDOT":"0.0000000000000","EPOCH":"2023-03-22T14:59:48.206400","REV_AT_EPOCH":"17093","ARG_OF_PERICENTER":"60.3546","RCS_SIZE":"LARGE","TLE_LINE1":"1 45207U 20012AF  23081.62486350  .00036489  00000-0  24530-2 0  9997","GP_ID":"228641735","PERIOD":"95.589","MEAN_ELEMENT_THEORY":"SGP4","ECCENTRICITY":"0.00016090","CENTER_NAME":"EARTH","MEAN_MOTION_DOT":"0.00036489","APOAPSIS":"548.193","RA_OF_ASC_NODE":"208.6850","INCLINATION":"53.0532","TIME_SYSTEM":"UTC","ELEMENT_SET_NO":"999","MEAN_ANOMALY":"299.7603","REF_FRAME":"TEME","MEAN_MOTION":"15.06444019","CLASSIFICATION_TYPE":"U","PERIAPSIS":"545.964","FILE":"3867800"},{"CENTER_NAME":"EARTH","APOAPSIS":"550.561","MEAN_MOTION_DOT":"0.00034883","RA_OF_ASC_NODE":"209.6749","INCLINATION":"52.9979","TIME_SYSTEM":"UTC","ELEMENT_SET_NO":"999","MEAN_ANOMALY":"276.4914","CLASSIFICATION_TYPE":"U","REF_FRAME":"TEME","MEAN_MOTION":"15.05604949","PERIAPSIS":"548.742","FILE":"3867475","EPHEMERIS_TYPE":"0","SEMIMAJOR_AXIS":"6927.786","SITE":"AFETR","NORAD_CAT_ID":"45208","OBJECT_TYPE":"PAYLOAD","COUNTRY_CODE":"US","BSTAR":"0.00239980000000","OBJECT_NAME":"STARLINK-1211","OBJECT_ID":"2020-012AG","LAUNCH_DATE":"2020-02-17","TLE_LINE2":"2 45208  52.9979 209.6749 0001313  83.6223 276.4914 15.05604949170836","DECAY_DATE":null,"MEAN_MOTION_DDOT":"0.0000000000000","EPOCH":"2023-03-22T09:37:59.439360","RCS_SIZE":"LARGE","ARG_OF_PERICENTER":"83.6223","REV_AT_EPOCH":"17083","GP_ID":"228635339","TLE_LINE1":"1 45208U 20012AG  23081.40138240  .00034883  00000-0  23998-2 0  9999","PERIOD":"95.643","MEAN_ELEMENT_THEORY":"SGP4","ECCENTRICITY":"0.00013130"},{"RA_OF_ASC_NODE":"208.6684","INCLINATION":"53.0518","TIME_SYSTEM":"UTC","CENTER_NAME":"EARTH","MEAN_MOTION_DOT":"0.00042955","APOAPSIS":"548.103","PERIAPSIS":"546.009","FILE":"3867801","ELEMENT_SET_NO":"999","MEAN_ANOMALY":"287.1007","REF_FRAME":"TEME","MEAN_MOTION":"15.06451311","CLASSIFICATION_TYPE":"U","OBJECT_NAME":"STARLINK-1219","TLE_LINE2":"2 45210  53.0518 208.6684 0001512  73.0148 287.1007 15.06451311170934","LAUNCH_DATE":"2020-02-17","OBJECT_ID":"2020-012AJ","SITE":"AFETR","NORAD_CAT_ID":"45210","SEMIMAJOR_AXIS":"6925.191","EPHEMERIS_TYPE":"0","COUNTRY_CODE":"US","BSTAR":"0.00288110000000","OBJECT_TYPE":"PAYLOAD","PERIOD":"95.589","MEAN_ELEMENT_THEORY":"SGP4","ECCENTRICITY":"0.00015120","MEAN_MOTION_DDOT":"0.0000000000000","DECAY_DATE":null,"EPOCH":"2023-03-22T15:05:06.338976","REV_AT_EPOCH":"17093","RCS_SIZE":"LARGE","ARG_OF_PERICENTER":"73.0148","GP_ID":"228641249","TLE_LINE1":"1 45210U 20012AJ  23081.62854559  .00042955  00000-0  28811-2 0  9992"},{"MEAN_ANOMALY":"268.5281","MEAN_MOTION":"15.06422259","REF_FRAME":"TEME","CLASSIFICATION_TYPE":"U","ELEMENT_SET_NO":"999","FILE":"3867467","PERIAPSIS":"546.281","MEAN_MOTION_DOT":"0.00028199","APOAPSIS":"548.010","CENTER_NAME":"EARTH","TIME_SYSTEM":"UTC","RA_OF_ASC_NODE":"209.1156","INCLINATION":"53.0525","REV_AT_EPOCH":"17092","RCS_SIZE":"LARGE","ARG_OF_PERICENTER":"91.5851","GP_ID":"228634943","TLE_LINE1":"1 45212U 20012AL  23081.52904550  .00028199  00000-0  19033-2 0  9990","DECAY_DATE":null,"MEAN_MOTION_DDOT":"0.0000000000000","EPOCH":"2023-03-22T12:41:49.531200","ECCENTRICITY":"0.00012480","PERIOD":"95.591","MEAN_ELEMENT_THEORY":"SGP4","NORAD_CAT_ID":"45212","SITE":"AFETR","SEMIMAJOR_AXIS":"6925.280","EPHEMERIS_TYPE":"0","COUNTRY_CODE":"US","BSTAR":"0.00190330000000","OBJECT_TYPE":"PAYLOAD","TLE_LINE2":"2 45212  53.0525 209.1156 0001248  91.5851 268.5281 15.06422259170921","LAUNCH_DATE":"2020-02-17","OBJECT_ID":"2020-012AL","OBJECT_NAME":"STARLINK-1231"},{"RA_OF_ASC_NODE":"105.1749","INCLINATION":"53.0532","TIME_SYSTEM":"UTC","CENTER_NAME":"EARTH","MEAN_MOTION_DOT":"0.00041063","APOAPSIS":"414.626","PERIAPSIS":"407.694","FILE":"3867467","ELEMENT_SET_NO":"999","MEAN_ANOMALY":"329.7182","MEAN_MOTION":"15.51907134","REF_FRAME":"TEME","CLASSIFICATION_TYPE":"U","OBJECT_NAME":"STARLINK-1232","TLE_LINE2":"2 45213  53.0532 105.1749 0005105  30.4122 329.7182 15.51907134172384","LAUNCH_DATE":"2020-02-17","OBJECT_ID":"2020-012AM","SITE":"AFETR","NORAD_CAT_ID":"45213","SEMIMAJOR_AXIS":"6789.295","EPHEMERIS_TYPE":"0","BSTAR":"0.00067694000000","COUNTRY_CODE":"US","OBJECT_TYPE":"PAYLOAD","PERIOD":"92.789","MEAN_ELEMENT_THEORY":"SGP4","ECCENTRICITY":"0.00051050","MEAN_MOTION_DDOT":"0.0000000000000","DECAY_DATE":null,"EPOCH":"2023-03-22T10:41:50.047296","REV_AT_EPOCH":"17238","ARG_OF_PERICENTER":"30.4122","RCS_SIZE":"LARGE","GP_ID":"228634948","TLE_LINE1":"1 45213U 20012AM  23081.44571814  .00041063  00000-0  67694-3 0  9997"},{"OBJECT_NAME":"STARLINK-1233","LAUNCH_DATE":"2020-02-17","OBJECT_ID":"2020-012AN","TLE_LINE2":"2 45214  53.0531 209.2268 0001292  78.5989 281.5145 15.06405344170910","EPHEMERIS_TYPE":"0","SEMIMAJOR_AXIS":"6925.332","SITE":"AFETR","NORAD_CAT_ID":"45214","OBJECT_TYPE":"PAYLOAD","COUNTRY_CODE":"US","BSTAR":"0.00168000000000","PERIOD":"95.592","MEAN_ELEMENT_THEORY":"SGP4","ECCENTRICITY":"0.00012920","MEAN_MOTION_DDOT":"0.0000000000000","DECAY_DATE":null,"EPOCH":"2023-03-22T12:03:17.560512","ARG_OF_PERICENTER":"78.5989","RCS_SIZE":"LARGE","REV_AT_EPOCH":"17091","GP_ID":"228635380","TLE_LINE1":"1 45214U 20012AN  23081.50228658  .00024834  00000-0  16800-2 0  9999","RA_OF_ASC_NODE":"209.2268","INCLINATION":"53.0531","TIME_SYSTEM":"UTC","CENTER_NAME":"EARTH","APOAPSIS":"548.092","MEAN_MOTION_DOT":"0.00024834","PERIAPSIS":"546.302","FILE":"3867467","ELEMENT_SET_NO":"999","MEAN_ANOMALY":"281.5145","CLASSIFICATION_TYPE":"U","REF_FRAME":"TEME","MEAN_MOTION":"15.06405344"},{"GP_ID":"228634982","TLE_LINE1":"1 45215U 20012AP  23081.49952751  .00044952  00000-0  30128-2 0  9998","REV_AT_EPOCH":"17091","RCS_SIZE":"LARGE","ARG_OF_PERICENTER":"82.0352","EPOCH":"2023-03-22T11:59:19.176864","MEAN_MOTION_DDOT":"0.0000000000000","DECAY_DATE":null,"ECCENTRICITY":"0.00008800","MEAN_ELEMENT_THEORY":"SGP4","PERIOD":"95.588","COUNTRY_CODE":"US","BSTAR":"0.00301280000000","OBJECT_TYPE":"PAYLOAD","SITE":"AFETR","NORAD_CAT_ID":"45215","SEMIMAJOR_AXIS":"6925.170","EPHEMERIS_TYPE":"0","TLE_LINE2":"2 45215  53.0545 209.2467 0000880  82.0352 278.0737 15.06458187170914","LAUNCH_DATE":"2020-02-17","OBJECT_ID":"2020-012AP","OBJECT_NAME":"STARLINK-1245","MEAN_MOTION":"15.06458187","REF_FRAME":"TEME","CLASSIFICATION_TYPE":"U","MEAN_ANOMALY":"278.0737","ELEMENT_SET_NO":"999","FILE":"3867476","PERIAPSIS":"546.426","MEAN_MOTION_DOT":"0.00044952","APOAPSIS":"547.645","CENTER_NAME":"EARTH","TIME_SYSTEM":"UTC","INCLINATION":"53.0545","RA_OF_ASC_NODE":"209.2467"},{"SITE":"AFETR","SEMIMAJOR_AXIS":"6925.211","NORAD_CAT_ID":"45217","EPHEMERIS_TYPE":"0","COUNTRY_CODE":"US","BSTAR":"0.00254260000000","OBJECT_TYPE":"PAYLOAD","TLE_LINE2":"2 45217  53.0529 209.0647 0001588  81.4503 278.6666 15.06444962170927","LAUNCH_DATE":"2020-02-17","OBJECT_ID":"2020-012AR","OBJECT_NAME":"STARLINK-1271","REV_AT_EPOCH":"17092","RCS_SIZE":"LARGE","ARG_OF_PERICENTER":"81.4503","TLE_LINE1":"1 45217U 20012AR  23081.54009969  .00037841  00000-0  25426-2 0  9994","GP_ID":"228634985","MEAN_MOTION_DDOT":"0.0000000000000","DECAY_DATE":null,"EPOCH":"2023-03-22T12:57:44.613216","ECCENTRICITY":"0.00015880","PERIOD":"95.589","MEAN_ELEMENT_THEORY":"SGP4","MEAN_MOTION_DOT":"0.00037841","APOAPSIS":"548.175","CENTER_NAME":"EARTH","TIME_SYSTEM":"UTC","RA_OF_ASC_NODE":"209.0647","INCLINATION":"53.0529","MEAN_ANOMALY":"278.6666","REF_FRAME":"TEME","MEAN_MOTION":"15.06444962","CLASSIFICATION_TYPE":"U","ELEMENT_SET_NO":"999","FILE":"3867469","PERIAPSIS":"545.976"},{"SITE":"AFETR","NORAD_CAT_ID":"45219","SEMIMAJOR_AXIS":"6925.356","EPHEMERIS_TYPE":"0","BSTAR":"0.00006664600000","COUNTRY_CODE":"US","OBJECT_TYPE":"PAYLOAD","OBJECT_NAME":"STARLINK-1187","TLE_LINE2":"2 45219  53.0558 189.0738 0001169 107.0300 253.0817 15.06397714171191","LAUNCH_DATE":"2020-02-17","OBJECT_ID":"2020-012AT","MEAN_MOTION_DDOT":"0.0000000000000","DECAY_DATE":null,"EPOCH":"2023-03-22T12:55:04.751616","REV_AT_EPOCH":"17119","RCS_SIZE":"LARGE","ARG_OF_PERICENTER":"107.0300","TLE_LINE1":"1 45219U 20012AT  23081.53824944  .00000711  00000-0  66646-4 0  9990","GP_ID":"228635278","PERIOD":"95.592","MEAN_ELEMENT_THEORY":"SGP4","ECCENTRICITY":"0.00011690","CENTER_NAME":"EARTH","MEAN_MOTION_DOT":"0.00000711","APOAPSIS":"548.030","RA_OF_ASC_NODE":"189.0738","INCLINATION":"53.0558","TIME_SYSTEM":"UTC","ELEMENT_SET_NO":"999","MEAN_ANOMALY":"253.0817","MEAN_MOTION":"15.06397714","REF_FRAME":"TEME","CLASSIFICATION_TYPE":"U","PERIAPSIS":"546.411","FILE":"3867461"},{"MEAN_MOTION_DOT":"0.00037516","APOAPSIS":"548.011","CENTER_NAME":"EARTH","TIME_SYSTEM":"UTC","INCLINATION":"53.0533","RA_OF_ASC_NODE":"188.4622","REF_FRAME":"TEME","MEAN_MOTION":"15.06408129","CLASSIFICATION_TYPE":"U","MEAN_ANOMALY":"277.6853","ELEMENT_SET_NO":"999","FILE":"3867796","PERIAPSIS":"546.367","BSTAR":"0.00252360000000","COUNTRY_CODE":"US","OBJECT_TYPE":"PAYLOAD","NORAD_CAT_ID":"45221","SITE":"AFETR","SEMIMAJOR_AXIS":"6925.324","EPHEMERIS_TYPE":"0","TLE_LINE2":"2 45221  53.0533 188.4622 0001187  82.4271 277.6853 15.06408129171224","OBJECT_ID":"2020-012AV","LAUNCH_DATE":"2020-02-17","OBJECT_NAME":"STARLINK-1189","TLE_LINE1":"1 45221U 20012AV  23081.67464537  .00037516  00000-0  25236-2 0  9997","GP_ID":"228641673","REV_AT_EPOCH":"17122","RCS_SIZE":"LARGE","ARG_OF_PERICENTER":"82.4271","EPOCH":"2023-03-22T16:11:29.359968","MEAN_MOTION_DDOT":"0.0000000000000","DECAY_DATE":null,"ECCENTRICITY":"0.00011870","MEAN_ELEMENT_THEORY":"SGP4","PERIOD":"95.592"}];
